OBJECT_NAME,OBJECT_ID,EPOCH,MEAN_MOTION,ECCENTRICITY,INCLINATION,RA_OF_ASC_NODE,ARG_OF_PERICENTER,MEAN_ANOMALY,EPHEMERIS_TYPE,CLASSIFICATION_TYPE,NORAD_CAT_ID,ELEMENT_SET_NO,REV_AT_EPOCH,BSTAR,MEAN_MOTION_DOT,MEAN_MOTION_DDOT
ONEWEB-0410,2022-012A,2026-06-13T13:44:10.427424,13.17648641,.00031092,87.9147,6.5758,77.1613,282.9866,0,U,51622,999,21322,.11327463E-3,.57E-6,0
ONEWEB-0411,2022-012B,2026-06-13T13:50:44.739744,13.10369231,.00016189,87.8839,36.9855,100.3499,259.7811,0,U,51623,999,20881,-.2403738E-5,.12E-6,0
ONEWEB-0415,2022-012C,2026-06-13T15:35:55.841568,13.10369827,.00017883,87.8835,36.9701,90.6856,269.4476,0,U,51624,999,20882,.46580743E-3,.175E-5,0
ONEWEB-0416,2022-012D,2026-06-13T14:02:42.033408,13.10370624,.0002052,87.8830,37.0010,94.4599,265.6763,0,U,51625,999,20885,-.12038265E-2,-.408E-5,0
ONEWEB-0422,2022-012E,2026-06-13T13:58:45.615360,13.17649290,.00012441,87.9143,6.5751,81.7001,278.4271,0,U,51626,999,21333,.95161913E-4,.5E-6,0
ONEWEB-0423,2022-012F,2026-06-13T13:49:02.684928,13.17650161,.00019208,87.9138,6.5821,84.3353,275.7997,0,U,51627,999,21322,.25419532E-4,.23E-6,0
ONEWEB-0425,2022-012G,2026-06-13T14:17:02.343264,13.10372747,.00020911,87.8834,36.9825,77.8750,282.2612,0,U,51628,999,20885,-.18480191E-2,-.632E-5,0
ONEWEB-0428,2022-012H,2026-06-13T15:38:18.849120,13.10369633,.00017615,87.8831,36.9785,81.3652,278.7674,0,U,51629,999,20882,.2014344E-3,.83E-6,0
ONEWEB-0431,2022-012J,2026-06-13T14:55:05.696544,13.10376373,.00014877,87.8838,36.9771,100.3661,259.7634,0,U,51630,999,20887,.99744383E-3,.361E-5,0
ONEWEB-0434,2022-012K,2026-06-13T14:22:00.668640,13.10373396,.00023429,87.8840,37.0066,73.1846,286.9538,0,U,51631,999,20885,-.16700021E-2,-.57E-5,0
ONEWEB-0435,2022-012L,2026-06-13T14:33:44.834688,13.10374108,.00014416,87.8835,36.9919,81.8947,278.2344,0,U,51632,999,20884,-.10772702E-2,-.363E-5,0
ONEWEB-0436,2022-012M,2026-06-13T13:36:52.778592,13.17649166,.00016451,87.9144,6.5654,88.6636,271.4684,0,U,51633,999,21320,.28600877E-3,.124E-5,0
ONEWEB-0438,2022-012N,2026-06-13T14:09:51.718752,13.10371074,.00019801,87.8833,36.9971,80.5498,279.5853,0,U,51634,999,20887,-.15183274E-2,-.517E-5,0
ONEWEB-0439,2022-012P,2026-06-13T14:14:39.689088,13.10373445,.00017933,87.8832,36.9840,78.9222,281.2107,0,U,51635,999,20885,-.17584748E-2,-.601E-5,0
ONEWEB-0442,2022-012Q,2026-06-13T15:15:18.117504,13.17649556,.0002408,87.9138,6.5849,83.7948,276.3457,0,U,51636,999,21320,.11419195E-3,.57E-6,0
ONEWEB-0443,2022-012R,2026-06-13T13:53:53.279232,13.17649672,.00018243,87.9136,6.5971,76.2070,283.9265,0,U,51637,999,21324,.87596048E-4,.47E-6,0
ONEWEB-0444,2022-012S,2026-06-13T14:00:18.206784,13.10370698,.00018274,87.8830,36.9849,77.3500,282.7831,0,U,51638,999,20886,-.9006342E-3,-.302E-5,0
ONEWEB-0445,2022-012T,2026-06-13T14:31:22.801728,13.10375100,.00018474,87.8845,36.9690,89.0538,271.0801,0,U,51639,999,20887,-.14380906E-2,-.489E-5,0
ONEWEB-0446,2022-012U,2026-06-13T13:57:54.730944,13.10369268,.00018557,87.8832,37.0023,87.6959,272.4381,0,U,51640,999,20885,-.96800434E-3,-.325E-5,0
ONEWEB-0448,2022-012V,2026-06-13T14:05:05.223264,13.10371058,.00017703,87.8831,36.9977,79.9521,280.1806,0,U,51641,999,20882,-.13216312E-2,-.449E-5,0
ONEWEB-0449,2022-012W,2026-06-13T14:12:15.156576,13.10371247,.00021691,87.8838,36.9822,75.5922,284.5446,0,U,51642,999,20883,-.16947046E-2,-.579E-5,0
ONEWEB-0451,2022-012X,2026-06-13T13:32:02.277600,13.17649205,.0002017,87.9148,6.5634,83.0189,277.1172,0,U,51643,999,21318,.66312523E-4,.39E-6,0
ONEWEB-0452,2022-012Y,2026-06-13T13:29:35.422656,13.17649290,.00019323,87.9137,6.6010,78.1646,281.9703,0,U,51644,999,21319,.1890739E-3,.86E-6,0
ONEWEB-0456,2022-012AA,2026-06-13T14:26:34.317312,13.10373512,.00016507,87.8848,36.9678,80.6102,279.5212,0,U,51646,999,20887,-.14354501E-2,-.488E-5,0
ONEWEB-0457,2022-012AB,2026-06-13T13:52:56.065152,13.10368712,.00021383,87.8831,36.9904,89.3561,270.7812,0,U,51647,999,20887,-.24843924E-3,-.74E-6,0
ONEWEB-0458,2022-012AC,2026-06-13T14:24:12.236832,13.10373241,.00018919,87.8845,36.9742,76.0818,284.0520,0,U,51648,999,20883,-.17155408E-2,-.586E-5,0
ONEWEB-0461,2022-012AD,2026-06-13T14:01:10.708608,13.17648750,.00019519,87.9143,6.5737,89.6886,270.4470,0,U,51649,999,21341,.15027419E-3,.71E-6,0
ONEWEB-0463,2022-012AE,2026-06-13T13:34:27.820992,13.17648858,.00019462,87.9134,6.6000,90.9576,269.1778,0,U,51650,999,21319,.82663965E-4,.45E-6,0
ONEWEB-0464,2022-012AF,2026-06-13T14:19:25.225536,13.10372652,.0001592,87.8836,36.9960,76.0958,284.0347,0,U,51651,999,20885,-.18847733E-2,-.645E-5,0
ONEWEB-0468,2022-012AG,2026-06-13T14:28:59.144448,13.10374730,.00015693,87.8834,36.9895,74.4099,285.7202,0,U,51652,999,20883,-.16026725E-2,-.547E-5,0
