ONEWEB-0410             
1 51622U 22012A   26164.57234291  .00000057  00000+0  11327-3 0  9993
2 51622  87.9147   6.5758 0003109  77.1613 282.9866 13.17648641213225
ONEWEB-0411             
1 51623U 22012B   26164.57690671  .00000012  00000+0 -24037-5 0  9998
2 51623  87.8839  36.9855 0001618 100.3499 259.7811 13.10369231208811
ONEWEB-0415             
1 51624U 22012C   26164.64995187  .00000175  00000+0  46581-3 0  9992
2 51624  87.8835  36.9701 0001788  90.6856 269.4476 13.10369827208821
ONEWEB-0416             
1 51625U 22012D   26164.58520872 -.00000408  00000+0 -12038-2 0  9991
2 51625  87.8830  37.0010 0002052  94.4599 265.6763 13.10370624208850
ONEWEB-0422             
1 51626U 22012E   26164.58247240  .00000050  00000+0  95162-4 0  9999
2 51626  87.9143   6.5751 0001244  81.7001 278.4271 13.17649290213331
ONEWEB-0423             
1 51627U 22012F   26164.57572552  .00000023  00000+0  25420-4 0  9996
2 51627  87.9138   6.5821 0001920  84.3353 275.7997 13.17650161213226
ONEWEB-0425             
1 51628U 22012G   26164.59516601 -.00000632  00000+0 -18480-2 0  9996
2 51628  87.8834  36.9825 0002091  77.8750 282.2612 13.10372747208852
ONEWEB-0428             
1 51629U 22012H   26164.65160705  .00000083  00000+0  20143-3 0  9992
2 51629  87.8831  36.9785 0001761  81.3652 278.7674 13.10369633208824
ONEWEB-0431             
1 51630U 22012J   26164.62159371  .00000361  00000+0  99744-3 0  9990
2 51630  87.8838  36.9771 0001487 100.3661 259.7634 13.10376373208874
ONEWEB-0434             
1 51631U 22012K   26164.59861885 -.00000570  00000+0 -16700-2 0  9991
2 51631  87.8840  37.0066 0002342  73.1846 286.9538 13.10373396208855
ONEWEB-0435             
1 51632U 22012L   26164.60676892 -.00000363  00000+0 -10773-2 0  9990
2 51632  87.8835  36.9919 0001441  81.8947 278.2344 13.10374108208842
ONEWEB-0436             
1 51633U 22012M   26164.56727753  .00000124  00000+0  28601-3 0  9992
2 51633  87.9144   6.5654 0001645  88.6636 271.4684 13.17649166213206
ONEWEB-0438             
1 51634U 22012N   26164.59018193 -.00000517  00000+0 -15183-2 0  9995
2 51634  87.8833  36.9971 0001980  80.5498 279.5853 13.10371074208876
ONEWEB-0439             
1 51635U 22012P   26164.59351492 -.00000601  00000+0 -17585-2 0  9990
2 51635  87.8832  36.9840 0001793  78.9222 281.2107 13.10373445208853
ONEWEB-0442             
1 51636U 22012Q   26164.63562636  .00000057  00000+0  11419-3 0  9994
2 51636  87.9138   6.5849 0002408  83.7948 276.3457 13.17649556213203
ONEWEB-0443             
1 51637U 22012R   26164.57908888  .00000047  00000+0  87596-4 0  9990
2 51637  87.9136   6.5971 0001824  76.2070 283.9265 13.17649672213246
ONEWEB-0444             
1 51638U 22012S   26164.58354406 -.00000302  00000+0 -90063-3 0  9991
2 51638  87.8830  36.9849 0001827  77.3500 282.7831 13.10370698208861
ONEWEB-0445             
1 51639U 22012T   26164.60512502 -.00000489  00000+0 -14381-2 0  9992
2 51639  87.8845  36.9690 0001847  89.0538 271.0801 13.10375100208877
ONEWEB-0446             
1 51640U 22012U   26164.58188346 -.00000325  00000+0 -96800-3 0  9992
2 51640  87.8832  37.0023 0001855  87.6959 272.4381 13.10369268208851
ONEWEB-0448             
1 51641U 22012V   26164.58686601 -.00000449  00000+0 -13216-2 0  9996
2 51641  87.8831  36.9977 0001770  79.9521 280.1806 13.10371058208827
ONEWEB-0449             
1 51642U 22012W   26164.59184209 -.00000579  00000+0 -16947-2 0  9993
2 51642  87.8838  36.9822 0002169  75.5922 284.5446 13.10371247208833
ONEWEB-0451             
1 51643U 22012X   26164.56391525  .00000039  00000+0  66313-4 0  9995
2 51643  87.9148   6.5634 0002017  83.0189 277.1172 13.17649205213181
ONEWEB-0452             
1 51644U 22012Y   26164.56221554  .00000086  00000+0  18907-3 0  9997
2 51644  87.9137   6.6010 0001932  78.1646 281.9703 13.17649290213195
ONEWEB-0456             
1 51646U 22012AA  26164.60178608 -.00000488  00000+0 -14355-2 0  9995
2 51646  87.8848  36.9678 0001650  80.6102 279.5212 13.10373512208874
ONEWEB-0457             
1 51647U 22012AB  26164.57842668 -.00000074  00000+0 -24844-3 0  9992
2 51647  87.8831  36.9904 0002138  89.3561 270.7812 13.10368712208871
ONEWEB-0458             
1 51648U 22012AC  26164.60014163 -.00000586  00000+0 -17155-2 0  9992
2 51648  87.8845  36.9742 0001891  76.0818 284.0520 13.10373241208833
ONEWEB-0461             
1 51649U 22012AD  26164.58415172  .00000071  00000+0  15027-3 0  9999
2 51649  87.9143   6.5737 0001951  89.6886 270.4470 13.17648750213415
ONEWEB-0463             
1 51650U 22012AE  26164.56559978  .00000045  00000+0  82664-4 0  9995
2 51650  87.9134   6.6000 0001946  90.9576 269.1778 13.17648858213196
ONEWEB-0464             
1 51651U 22012AF  26164.59681974 -.00000645  00000+0 -18848-2 0  9990
2 51651  87.8836  36.9960 0001592  76.0958 284.0347 13.10372652208856
ONEWEB-0468             
1 51652U 22012AG  26164.60346232 -.00000547  00000+0 -16027-2 0  9996
2 51652  87.8834  36.9895 0001569  74.4099 285.7202 13.10374730208839
